{
  "type": "FeatureCollection",
  "features": [
    {
      "type": "Feature",
      "properties": {
        "dataset": "existing",
        "label": "Tuyến 61-2 hiện hữu"
      },
      "geometry": {
        "type": "LineString",
        "coordinates": [
          [
            106.5922313,
            11.1559576
          ],
          [
            106.5926083022375,
            11.15575130850771
          ],
          [
            106.5930568855239,
            11.15534084723321
          ],
          [
            106.5937127048746,
            11.1549386260812
          ],
          [
            106.5953982720648,
            11.15408173713896
          ],
          [
            106.5962750102174,
            11.15372935134042
          ],
          [
            106.5980077911074,
            11.15285238314035
          ],
          [
            106.5984592378813,
            11.15208356392088
          ],
          [
            106.5985133728159,
            11.15147784748142
          ],
          [
            106.5984177164956,
            11.15110672550935
          ],
          [
            106.5982153916455,
            11.15082810442754
          ],
          [
            106.5979931169288,
            11.15067991238341
          ],
          [
            106.5978610220359,
            11.15051203985606
          ],
          [
            106.5976328744622,
            11.15022209998706
          ],
          [
            106.597528620558,
            11.14993690961575
          ],
          [
            106.5974868177334,
            11.14949810290316
          ],
          [
            106.5974263,
            11.1491349
          ],
          [
            106.5975738,
            11.1488349
          ],
          [
            106.5984536,
            11.1477506
          ],
          [
            106.5993334,
            11.1466191
          ],
          [
            106.6020505,
            11.1432479
          ],
          [
            106.6028739,
            11.1422611
          ],
          [
            106.6035738,
            11.1413889
          ],
          [
            106.6036757,
            11.1411416
          ],
          [
            106.6039762,
            11.1369467
          ],
          [
            106.604121,
            11.1355677
          ],
          [
            106.6042712,
            11.1348518
          ],
          [
            106.6046145,
            11.1342729
          ],
          [
            106.6053173,
            11.1335097
          ],
          [
            106.6092279,
            11.1303095
          ],
          [
            106.6121579,
            11.1279056
          ],
          [
            106.612807,
            11.1273134
          ],
          [
            106.6130886,
            11.1268871
          ],
          [
            106.6133622,
            11.1262581
          ],
          [
            106.614765,
            11.1215524
          ],
          [
            106.6151298,
            11.120197
          ],
          [
            106.6154238,
            11.1190278
          ],
          [
            106.6164216,
            11.116217
          ],
          [
            106.6173657,
            11.1135588
          ],
          [
            106.6183474,
            11.111069
          ],
          [
            106.6189214,
            11.1098109
          ],
          [
            106.619195,
            11.1092529
          ],
          [
            106.6212388,
            11.1067631
          ],
          [
            106.6224458,
            11.1053366
          ],
          [
            106.6227677,
            11.1048891
          ],
          [
            106.6232237,
            11.1042101
          ],
          [
            106.624597,
            11.1014517
          ],
          [
            106.6253373,
            11.0997462
          ],
          [
            106.6255626,
            11.0979775
          ],
          [
            106.6259703,
            11.0949401
          ],
          [
            106.6262868,
            11.0915973
          ],
          [
            106.6264584,
            11.0883124
          ],
          [
            106.6264638,
            11.0837693
          ],
          [
            106.6264852,
            11.0801948
          ],
          [
            106.6266944,
            11.0793419
          ],
          [
            106.6277942,
            11.076636
          ],
          [
            106.6278639,
            11.0761938
          ],
          [
            106.6274133,
            11.0731088
          ],
          [
            106.6274079,
            11.0723928
          ],
          [
            106.6278478,
            11.0678021
          ],
          [
            106.6284808,
            11.0647012
          ],
          [
            106.6285505,
            11.0627269
          ],
          [
            106.6285237,
            11.0617424
          ],
          [
            106.6283842,
            11.0593417
          ],
          [
            106.6286256,
            11.0580097
          ],
          [
            106.6289207,
            11.0566987
          ],
          [
            106.6299185,
            11.0528501
          ],
          [
            106.6301223,
            11.0523394
          ],
          [
            106.631737,
            11.0493068
          ],
          [
            106.6342315,
            11.0446736
          ],
          [
            106.6348752,
            11.0434731
          ],
          [
            106.6375198,
            11.0388451
          ],
          [
            106.6388502,
            11.036539
          ],
          [
            106.6394457,
            11.0353753
          ],
          [
            106.6400036,
            11.0341485
          ],
          [
            106.640599,
            11.0329797
          ],
          [
            106.6413822,
            11.0319319
          ],
          [
            106.6431686,
            11.0298995
          ],
          [
            106.6439571,
            11.0288306
          ],
          [
            106.6447082,
            11.0278565
          ],
          [
            106.6457971,
            11.0270035
          ],
          [
            106.6482165,
            11.025624
          ],
          [
            106.6487529,
            11.0251764
          ],
          [
            106.649048,
            11.0246815
          ],
          [
            106.6492411,
            11.0239285
          ],
          [
            106.6487368,
            11.0208166
          ],
          [
            106.6483023,
            11.0186841
          ],
          [
            106.647503,
            11.0144243
          ],
          [
            106.6464784,
            11.0102012
          ],
          [
            106.6462209,
            11.0094272
          ],
          [
            106.6454538,
            11.0083214
          ],
          [
            106.6451963,
            11.0077369
          ],
          [
            106.6451641,
            11.0067785
          ],
          [
            106.6453358,
            11.0058412
          ],
          [
            106.6456738,
            11.0047775
          ],
          [
            106.6464355,
            11.001934
          ],
          [
            106.6468217,
            10.9999804
          ],
          [
            106.6471061,
            10.999101
          ],
          [
            106.6473957,
            10.998527
          ],
          [
            106.6483721,
            10.9975423
          ],
          [
            106.6491714,
            10.9968946
          ],
          [
            106.6493484,
            10.9966102
          ],
          [
            106.6498473,
            10.9960836
          ],
          [
            106.6501704,
            10.9956958
          ],
          [
            106.6504494,
            10.9952035
          ],
          [
            106.6505835,
            10.9948111
          ],
          [
            106.650503,
            10.9942056
          ],
          [
            106.6503555,
            10.9934604
          ],
          [
            106.6503662,
            10.9931629
          ],
          [
            106.6505084,
            10.9926389
          ],
          [
            106.6508705,
            10.9918043
          ],
          [
            106.6509375,
            10.9915805
          ],
          [
            106.6508708,
            10.9914428
          ],
          [
            106.6509781,
            10.9913322
          ],
          [
            106.6510046,
            10.9901955
          ],
          [
            106.6510689,
            10.9898032
          ],
          [
            106.6512755,
            10.9893872
          ],
          [
            106.6520184,
            10.9880259
          ],
          [
            106.6525012,
            10.9873229
          ],
          [
            106.6525683,
            10.9871254
          ],
          [
            106.6525817,
            10.9868779
          ],
          [
            106.6524396,
            10.9861985
          ],
          [
            106.65241,
            10.9858799
          ],
          [
            106.6524074,
            10.985535
          ],
          [
            106.6525549,
            10.9845582
          ],
          [
            106.6525549,
            10.9838683
          ],
          [
            106.6525737,
            10.9834997
          ],
          [
            106.6530699,
            10.982191
          ],
          [
            106.6532469,
            10.9817092
          ],
          [
            106.653553,
            10.9810159
          ],
          [
            106.6535634,
            10.9807191
          ],
          [
            106.6538802,
            10.9806314
          ],
          [
            106.6549877,
            10.9794342
          ],
          [
            106.6556126,
            10.978868
          ],
          [
            106.6560525,
            10.9785257
          ],
          [
            106.6563586,
            10.9782511
          ],
          [
            106.6571576,
            10.9771302
          ],
          [
            106.6573775,
            10.9767958
          ],
          [
            106.657458,
            10.9766325
          ],
          [
            106.6576243,
            10.976335
          ],
          [
            106.6585604,
            10.9748815
          ],
          [
            106.6597352,
            10.9729277
          ],
          [
            106.6598344,
            10.9727512
          ],
          [
            106.6598076,
            10.9724669
          ],
          [
            106.6596171,
            10.9716795
          ],
          [
            106.6595823,
            10.9713214
          ],
          [
            106.6597352,
            10.9702445
          ],
          [
            106.65977,
            10.9693518
          ],
          [
            106.6598746,
            10.9691095
          ],
          [
            106.6605237,
            10.968654
          ],
          [
            106.6609743,
            10.9685013
          ],
          [
            106.6624737,
            10.9686066
          ],
          [
            106.6628197,
            10.9685355
          ],
          [
            106.6631255,
            10.9683406
          ],
          [
            106.6640642,
            10.9674796
          ],
          [
            106.6642118,
            10.9673058
          ],
          [
            106.6646275,
            10.9669134
          ],
          [
            106.6649494,
            10.9667212
          ],
          [
            106.6667207,
            10.9658476
          ],
          [
            106.668514,
            10.9651676
          ],
          [
            106.6686562,
            10.9655731
          ],
          [
            106.6684845,
            10.9656363
          ]
        ]
      }
    }
  ]
}
