{
  "type": "FeatureCollection",
  "features": [
    {
      "type": "Feature",
      "properties": {
        "dataset": "proposed",
        "label": "Tuyến 61-2 điều chỉnh"
      },
      "geometry": {
        "type": "LineString",
        "coordinates": [
          [
            106.66846,
            10.965578
          ],
          [
            106.668559,
            10.965541
          ],
          [
            106.668482,
            10.965321
          ],
          [
            106.666936,
            10.96589
          ],
          [
            106.666658,
            10.965947
          ],
          [
            106.665,
            10.96679
          ],
          [
            106.664603,
            10.967028
          ],
          [
            106.663965,
            10.96769
          ],
          [
            106.663139,
            10.968422
          ],
          [
            106.662827,
            10.968627
          ],
          [
            106.66249,
            10.96868
          ],
          [
            106.661105,
            10.96858
          ],
          [
            106.660569,
            10.968712
          ],
          [
            106.659941,
            10.969154
          ],
          [
            106.65985,
            10.969402
          ],
          [
            106.659818,
            10.970219
          ],
          [
            106.659652,
            10.971287
          ],
          [
            106.659662,
            10.97144
          ],
          [
            106.659893,
            10.972514
          ],
          [
            106.659866,
            10.972879
          ],
          [
            106.6583,
            10.975426
          ],
          [
            106.657479,
            10.976738
          ],
          [
            106.657388,
            10.976917
          ],
          [
            106.656379,
            10.978349
          ],
          [
            106.655489,
            10.979076
          ],
          [
            106.654625,
            10.979913
          ],
          [
            106.653922,
            10.980704
          ],
          [
            106.653971,
            10.980957
          ],
          [
            106.653751,
            10.981094
          ],
          [
            106.653584,
            10.981099
          ],
          [
            106.652721,
            10.983306
          ],
          [
            106.652646,
            10.983627
          ],
          [
            106.652646,
            10.984427
          ],
          [
            106.652496,
            10.985539
          ],
          [
            106.652485,
            10.985954
          ],
          [
            106.652656,
            10.986897
          ],
          [
            106.652635,
            10.987266
          ],
          [
            106.652147,
            10.988008
          ],
          [
            106.651138,
            10.989851
          ],
          [
            106.651074,
            10.990294
          ],
          [
            106.651051,
            10.991374
          ],
          [
            106.651104,
            10.991524
          ],
          [
            106.650994,
            10.991656
          ],
          [
            106.650898,
            10.991983
          ],
          [
            106.65057,
            10.992679
          ],
          [
            106.65042,
            10.993327
          ],
          [
            106.65063,
            10.994426
          ],
          [
            106.650656,
            10.994807
          ],
          [
            106.650463,
            10.995381
          ],
          [
            106.650113,
            10.995885
          ],
          [
            106.649872,
            10.996171
          ],
          [
            106.649894,
            10.996576
          ],
          [
            106.648955,
            10.997182
          ],
          [
            106.648092,
            10.997961
          ],
          [
            106.647523,
            10.998561
          ],
          [
            106.64712,
            10.999335
          ],
          [
            106.646944,
            10.999894
          ],
          [
            106.646525,
            11.002032
          ],
          [
            106.645828,
            11.004722
          ],
          [
            106.645318,
            11.006539
          ],
          [
            106.645248,
            11.00725
          ],
          [
            106.645452,
            11.008103
          ],
          [
            106.64631,
            11.009377
          ],
          [
            106.646498,
            11.009804
          ],
          [
            106.647426,
            11.013569
          ],
          [
            106.647727,
            11.014832
          ],
          [
            106.648118,
            11.017054
          ],
          [
            106.648714,
            11.020214
          ],
          [
            106.649272,
            11.023236
          ],
          [
            106.64932,
            11.023926
          ],
          [
            106.649202,
            11.024595
          ],
          [
            106.648918,
            11.025126
          ],
          [
            106.648263,
            11.0257
          ],
          [
            106.647641,
            11.026111
          ],
          [
            106.64527,
            11.027506
          ],
          [
            106.644701,
            11.028033
          ],
          [
            106.643221,
            11.030039
          ],
          [
            106.642529,
            11.030803
          ],
          [
            106.640989,
            11.032598
          ],
          [
            106.640667,
            11.033051
          ],
          [
            106.63939,
            11.035684
          ],
          [
            106.638146,
            11.037995
          ],
          [
            106.636703,
            11.040433
          ],
          [
            106.635024,
            11.043423
          ],
          [
            106.633136,
            11.046914
          ],
          [
            106.632229,
            11.048599
          ],
          [
            106.631027,
            11.05081
          ],
          [
            106.630046,
            11.052721
          ],
          [
            106.62922,
            11.055933
          ],
          [
            106.628506,
            11.059139
          ],
          [
            106.628479,
            11.060055
          ],
          [
            106.628694,
            11.062314
          ],
          [
            106.628608,
            11.064588
          ],
          [
            106.627932,
            11.067894
          ],
          [
            106.627857,
            11.068421
          ],
          [
            106.627498,
            11.072511
          ],
          [
            106.627514,
            11.073222
          ],
          [
            106.627964,
            11.076054
          ],
          [
            106.627825,
            11.076807
          ],
          [
            106.62672,
            11.079555
          ],
          [
            106.626586,
            11.080119
          ],
          [
            106.626516,
            11.083514
          ],
          [
            106.626575,
            11.086004
          ],
          [
            106.626559,
            11.088405
          ],
          [
            106.626521,
            11.0889
          ],
          [
            106.626398,
            11.091158
          ],
          [
            106.626237,
            11.093253
          ],
          [
            106.626006,
            11.095506
          ],
          [
            106.62572,
            11.097316
          ],
          [
            106.6241445,
            11.097333
          ],
          [
            106.6195372,
            11.0957907
          ],
          [
            106.6122567,
            11.0928998
          ],
          [
            106.6040841,
            11.0904884
          ],
          [
            106.5986582,
            11.1048337
          ],
          [
            106.6048436,
            11.1072498
          ],
          [
            106.6117641,
            11.1096818
          ],
          [
            106.618145,
            11.111813
          ],
          [
            106.617461,
            11.113714
          ],
          [
            106.616093,
            11.117488
          ],
          [
            106.615487,
            11.11931
          ],
          [
            106.614762,
            11.122099
          ],
          [
            106.613722,
            11.125652
          ],
          [
            106.61325,
            11.127047
          ],
          [
            106.613024,
            11.127363
          ],
          [
            106.610696,
            11.129279
          ],
          [
            106.607346,
            11.132041
          ],
          [
            106.6045192,
            11.1342093
          ],
          [
            106.603806,
            11.141147
          ],
          [
            106.5982441,
            11.1480374
          ],
          [
            106.5973944,
            11.1494195
          ],
          [
            106.5984071,
            11.1510368
          ],
          [
            106.5983715,
            11.1521659
          ],
          [
            106.5972741,
            11.1532015
          ],
          [
            106.5932715,
            11.1552499
          ],
          [
            106.5923685,
            11.1564203
          ]
        ]
      }
    }
  ]
}
