{
  "type": "FeatureCollection",
  "name": "MapIllustration Industrial Infill POC - Khu công nghiệp Mỹ Phước 1",
  "features": [
    {
      "type": "Feature",
      "id": "osm-industrial-759187612",
      "properties": {
        "id": "osm-industrial-759187612",
        "name": "Khu công nghiệp Mỹ Phước 1",
        "landuse": "industrial",
        "source": "User-supplied 'Land use' dataset (OSM-derived feature)",
        "source_dataset_name": "Land use",
        "source_osm_id": "759187612",
        "source_fid": 17929,
        "source_fclass": "industrial",
        "source_crs": "EPSG:32648",
        "output_crs": "EPSG:4326",
        "usage": "synthetic-urban-infill-poc",
        "authoritative": false,
        "area_km2": 2.80368,
        "distance_to_proposed_route_m": 180.7
      },
      "geometry": {
        "type": "Polygon",
        "coordinates": [
          [
            [106.5877666, 11.126999499999998],
            [106.5878881, 11.1264593],
            [106.5900544, 11.125631500000003],
            [106.5903008, 11.126678199999999],
            [106.59134020000002, 11.1267618],
            [106.5916795, 11.1267891],
            [106.59273100000001, 11.117435600000002],
            [106.60257970000002, 11.1185158],
            [106.6017579, 11.1255552],
            [106.6037689, 11.125822699999995],
            [106.6027608, 11.1350794],
            [106.6020929, 11.1357618],
            [106.59873350000001, 11.1391938],
            [106.5979758, 11.139611400000001],
            [106.5979135, 11.1401817],
            [106.5972077, 11.1414241],
            [106.5940004, 11.141149199999997],
            [106.59441560000002, 11.137095899999998],
            [106.5920075, 11.136719099999999],
            [106.5914629, 11.132625500000001],
            [106.5929214, 11.1327729],
            [106.5930715, 11.1311454],
            [106.5914986, 11.130983999999998],
            [106.59129840000001, 11.130731499999998],
            [106.5913413, 11.129573999999998],
            [106.5903833, 11.129363499999998],
            [106.5893252, 11.128486699999998],
            [106.5882599, 11.127701000000002],
            [106.5877666, 11.126999499999998]
          ]
        ]
      }
    }
  ]
}
